C/2007 N3 (Lulin),e,178.3769,338.1626,136.6358,1455,0.0000178,0.99915466,0.0000,01/07.8985/2009,2000,g  6.5,4.0
# From MPC 60925
P/2007 Q2 (Gilmore),e,10.2176,172.2564,162.9699,5.629541,0.0737895,0.66982966,275.8045,10/14.0/2017,2000,g 16.0,4.0
# From MPC 78183
C/2007 Q3 (Siding Spring),h,10/07.4117/2009,65.6502,149.3466,2.2800,1.000604,2.266213,2000,4.5,4.0
# From MPC 75514
P/2007 R1 (Larson),e,7.8623,181.6198,175.0419,6.040975,0.0663810,0.28173976,246.8973,10/14.0/2017,2000,g  8.0,4.0
# From MPC 75708
P/2007 R2 (Gibbs),e,1.2411,11.8848,352.4497,3.557113,0.1469121,0.54763387,203.4039,10/14.0/2017,2000,g 17.0,4.0
# From MPC 75708
P/2007 R4 (Garradd),e,20.2072,87.3155,283.0633,5.880563,0.0691155,0.66942227,254.9549,10/14.0/2017,2000,g 14.5,4.0
# From MPC 73462
P/2007 S1 (Zhao),e,5.9692,141.5144,245.9155,3.802098,0.1329441,0.34232599,118.0990,10/14.0/2017,2000,g 13.0,4.0
# From MPC 82314
C/2007 S2 (Lemmon),e,16.8578,296.0753,210.6665,12.56369,0.0221324,0.55629152,73.4455,10/14.0/2017,2000,g  6.5,4.0
# From MPC 62270
C/2007 T1 (McNaught),e,117.7296,111.5546,233.8659,1893,0.0000120,0.99948356,0.0000,12/08.1436/2007,2000,g 10.5,4.0
# From MPC 61994
P/2007 T2 (Kowalski),e,9.7418,3.4455,359.5657,3.051856,0.1848664,0.78490291,307.7916,10/14.0/2017,2000,g 18.5,4.0
# From MPC 62879
P/2007 T4 (Gibbs),e,23.8608,37.0571,42.4888,5.244421,0.0820650,0.61792998,306.8421,10/14.0/2017,2000,g 13.0,4.0
# From MPC 65935
C/2007 T5 (Gibbs),e,45.5582,109.7949,34.5729,46.84785,0.0030738,0.91318904,10.5433,10/14.0/2017,2000,g  8.0,4.0
# From MPC 66921
C/2007 U1 (LINEAR),h,08/09.6918/2008,157.7328,50.4587,1.3098,1.000703,3.317280,2000,9.0,4.0
# From MPC 75708
P/2007 V1 (Larson),e,10.7600,7.9347,51.6563,4.975634,0.0888038,0.46216563,319.5765,10/14.0/2017,2000,g 12.0,4.0
# From MPC 75708
P/2007 VQ11 (Catalina),e,12.3260,163.8171,277.8164,5.414744,0.0782235,0.50274757,276.2592,10/14.0/2017,2000,g 12.0,4.0
# From MPC 81468
C/2007 VO53 (Spacewatch),h,04/24.6149/2010,86.8680,59.7009,75.1472,1.000731,4.854601,2000,7.0,4.0
# From MPC 63599
C/2007 W1 (Boattini),e,9.8918,334.6294,306.2044,1160,0.0000249,0.99927975,0.0000,06/24.7282/2008,2000,g  9.5,4.0
# From MPC 63376
C/2007 W3 (LINEAR),e,78.6257,72.7481,112.5308,3739,0.0000043,0.99952751,0.0000,06/03.7590/2008,2000,g 12.0,4.0
# From MPC 62271
C/2007 Y1 (LINEAR),e,110.1349,133.0712,357.2841,16579,0.0000005,0.99979720,0.0000,03/19.1251/2008,2000,g 10.5,4.0
# From MPC 62271
C/2007 Y2 (McNaught),e,98.4605,303.4114,257.7102,1006,0.0000309,0.99582703,0.0000,04/11.8326/2008,2000,g  9.0,4.0
# From MPC 65935
C/2008 A1 (McNaught),e,82.7970,277.7470,348.2857,2886,0.0000064,0.99963151,0.0000,09/27.9827/2008,2000,g  6.5,4.0
# From MPC 62582
C/2008 C1 (Chen-Gao),e,61.7446,307.7499,181.0561,8942,0.0000012,0.99985769,0.0000,04/17.4353/2008,2000,g 10.0,4.0
# From MPC 75708
P/2008 CL94 (Lemmon),e,8.3546,33.3515,81.2993,6.151698,0.0645969,0.12045236,266.4941,10/14.0/2017,2000,g  8.0,4.0
# From MPC 64113
C/2008 E1 (Catalina),e,34.8194,188.8127,270.7597,10.81541,0.0277102,0.54944070,92.9034,10/14.0/2017,2000,g  7.0,4.0
# From MPC 68392
C/2008 E3 (Garradd),e,105.1811,105.6808,217.9936,1161,0.0000249,0.99523761,0.0000,07/28.9130/2008,2000,g  6.0,4.0
# From MPC 88324
C/2008 FK75 (Lemmon-Siding Spring),h,09/30.2581/2010,61.3053,218.2840,80.3564,1.000541,4.501178,2000,5.0,4.0
# From MPC 82314
C/2008 G1 (Gibbs),e,73.0816,215.9263,63.6642,283.5299,0.0002064,0.98594683,0.0000,01/12.6309/2009,2000,g  9.5,4.0
# From MPC 63137
C/2008 H1 (LINEAR),e,75.3638,34.4127,96.0925,50.73146,0.0027276,0.94545505,9.5491,10/14.0/2017,2000,g 10.5,4.0
# From MPC 65054
C/2008 J1 (Boattini),e,61.9174,273.5937,68.0600,156.5049,0.0005034,0.98895463,0.0000,07/09.6985/2008,2000,g 10.0,4.0
# From MPC 63376
C/2008 J5 (Garradd),e,93.3304,286.9424,313.0409,68.10644,0.0017536,0.97147664,0.0000,04/01.6130/2008,2000,g 12.0,4.0
# From MPC 82314
C/2008 J6 (Hill),h,04/09.2398/2008,45.0697,298.1815,10.5245,1.000770,1.990721,2000,10.5,4.0
# From MPC 75709
P/2008 L2 (Hill),e,25.8386,218.0065,141.2994,6.023038,0.0666777,0.61194400,224.0325,10/14.0/2017,2000,g 12.5,4.0
# From MPC 68902
C/2008 N1 (Holmes),e,115.4095,357.3781,100.8028,847.8921,0.0000399,0.99670134,0.0000,09/21.7362/2009,2000,g  9.0,4.0
# From MPC 75709
P/2008 O2 (McNaught),e,9.5131,325.8446,26.9789,4.495412,0.1034070,0.15132444,321.6181,10/14.0/2017,2000,g  9.0,4.0
# From MPC 64114
P/2008 O3 (Boattini),e,32.1862,47.6400,341.1597,8.234076,0.0417140,0.69339529,143.0730,10/14.0/2017,2000,g 13.0,4.0
# From MPC103843
C/2008 P1 (Garradd),e,64.2689,357.7882,11.7222,3174,0.0000055,0.99877432,0.0000,07/20.0082/2009,2000,g  7.0,4.0
# From MPC 65935
C/2008 Q1 (Maticic),e,118.5164,9.1460,104.3772,545.8477,0.0000773,0.99456224,0.0000,12/25.8698/2008,2000,g 10.0,4.0
# From MPC 80896
C/2008 Q3 (Garradd),e,140.8175,219.4808,340.6692,1384,0.0000191,0.99869165,0.0000,06/19.5101/2009,2000,g 10.0,4.0
# From MPC 75709
P/2008 QP20 (LINEAR-Hill),e,7.5902,323.9563,74.1789,3.519575,0.1492687,0.50292218,131.5338,10/14.0/2017,2000,g 15.5,4.0
# From MPC 64115
C/2008 R3 (LINEAR),e,43.2851,270.7526,84.0699,18.26786,0.0126233,0.89510418,41.0525,10/14.0/2017,2000,g 13.0,4.0
# From MPC 95207
C/2008 S3 (Boattini),h,06/08.1532/2011,162.6935,55.0742,40.0759,1.002320,8.004307,2000,4.0,4.0
# From MPC 66921
C/2008 T2 (Cardinal),h,06/15.3744/2009,56.2281,309.6305,215.9195,1.000207,1.202631,2000,6.0,4.0
# From MPC 66204
P/2008 WZ96 (LINEAR),e,7.1867,57.1077,341.4698,3.413106,0.1563074,0.50231206,145.5875,10/14.0/2017,2000,g 13.5,4.0
# From MPC 65057
C/2008 X3 (LINEAR),e,66.4703,337.6054,140.9963,43.66992,0.0034153,0.95602845,11.2444,10/14.0/2017,2000,g 13.0,4.0
# From MPC 65935
P/2008 Y1 (Boattini),e,8.9183,259.3348,162.8026,4.802862,0.0936384,0.73585888,294.7589,10/14.0/2017,2000,g 15.0,4.0
# From MPC 75710
P/2008 Y3 (McNaught),e,38.7766,262.8069,238.4187,8.037100,0.0432569,0.44744239,138.3135,10/14.0/2017,2000,g  8.5,4.0
# From MPC 88693
P/2008 Y12 (SOHO),e,23.5725,309.8602,144.3136,3.076864,0.1826171,0.97798562,0.0000,10/09.9054/2019,2000,g  9.0,4.0
# From MPC 75710
P/2009 B1 (Boattini),e,22.2253,297.0745,129.1271,6.727910,0.0564786,0.63475381,179.6827,10/14.0/2017,2000,g 13.0,4.0
# From MPC 82315
C/2009 B2 (LINEAR),e,156.9521,18.7125,192.5346,40.70751,0.0037948,0.94228157,11.9354,10/14.0/2017,2000,g 12.5,4.0
# From MPC 72850
C/2009 E1 (Itagaki),e,127.2583,105.7855,48.7271,40.22950,0.0038627,0.98530520,0.0000,04/09.6515/2009,2000,g 11.5,4.0
# From MPC 82315
C/2009 F1 (Larson),e,171.4006,357.9584,219.8243,96.82263,0.0010345,0.98092768,0.0000,06/26.3561/2009,2000,g 15.0,4.0
# From MPC 80256
C/2009 F2 (McNaught),e,59.3352,213.9051,336.4746,360.3873,0.0001441,0.98366437,0.0000,11/13.9902/2009,2000,g  6.0,4.0
# From MPC 95208
C/2009 F4 (McNaught),e,79.4543,53.5588,260.3757,14798,0.0000005,0.99963159,0.0000,01/01.3673/2012,2000,g  3.0,4.0
# From MPC 66204
C/2009 F5 (McNaught),e,84.9391,218.7700,297.3380,78.61128,0.0014141,0.97139895,0.0000,11/03.2148/2008,2000,g 10.0,4.0
# From MPC 72850
C/2009 F6 (Yi-SWAN),e,85.6746,278.9289,129.9594,500.3546,0.0000881,0.99742392,0.0000,05/05.4675/2009,2000,g  6.0,4.0
# From MPC 66466
C/2009 G1 (STEREO),e,108.4331,120.6187,175.2728,389.0868,0.0001284,0.99711697,0.0000,04/14.0767/2009,2000,g  9.0,4.0
# From MPC 82315
C/2009 K2 (Catalina),e,66.8397,123.7016,147.4829,844.3283,0.0000402,0.99618183,0.0000,02/08.3921/2010,2000,g 10.0,4.0
# From MPC 66703
C/2009 K4 (Gibbs),e,34.8392,29.7771,127.7666,42.32446,0.0035795,0.96329077,10.8736,10/14.0/2017,2000,g 13.0,4.0
# From MPC 82315
C/2009 K5 (McNaught),e,104.2195,258.0620,66.2144,1985,0.0000111,0.99928082,0.0000,04/28.4522/2010,2000,g  7.5,4.0
# From MPC 69905
C/2009 O2 (Catalina),e,107.8720,310.3628,133.6574,259.5489,0.0002357,0.99727519,0.0000,03/23.7315/2010,2000,g 11.0,4.0
# From MPC 75710
P/2009 O3 (Hill),e,16.2118,183.8178,154.3058,7.782282,0.0453987,0.68521851,139.7201,10/14.0/2017,2000,g 12.5,4.0
# From MPC 67147
C/2009 O4 (Hill),e,95.6944,172.9943,223.7022,45952,0.0000001,0.99994417,0.0000,12/28.6747/2009,2000,g 10.0,4.0
# From MPC103843
C/2009 P1 (Garradd),e,106.2378,326.0948,90.8473,7737,0.0000014,0.99979827,0.0000,12/21.3861/2011,2000,g  4.0,4.0
# From MPC 76024
C/2009 P2 (Boattini),h,02/09.7986/2010,163.4149,60.4931,76.1426,1.000367,6.528933,2000,6.0,4.0
# From MPC 75710
P/2009 Q1 (Hill),e,14.4982,173.9454,157.1817,5.517288,0.0760529,0.49357644,231.8099,10/14.0/2017,2000,g 11.5,4.0
# From MPC 72850
P/2009 Q4 (Boattini),e,10.9839,127.5312,320.0766,3.132877,0.1777416,0.58058820,151.7354,10/14.0/2017,2000,g 15.5,4.0
# From MPC 68902
P/2009 Q5 (McNaught),e,40.8718,160.1846,209.1412,7.448428,0.0484850,0.60679750,143.8595,10/14.0/2017,2000,g 10.0,4.0
# From MPC 82315
C/2009 R1 (McNaught),h,07/01.8522/2010,76.9783,322.6330,130.9147,1.000395,0.414646,2000,8.0,4.0
# From MPC 87062
C/2009 S3 (Lemmon),e,60.4558,225.1754,129.7141,6223,0.0000020,0.99896107,0.0000,12/11.1922/2011,2000,g  6.5,4.0
# From MPC 78184
P/2009 SK280 (Spacewatch-Hill),e,16.8002,36.4167,327.9521,4.778176,0.0943650,0.11901531,290.1675,10/14.0/2017,2000,g 11.0,4.0
# From MPC 76567
C/2009 T1 (McNaught),e,90.0416,54.4679,282.6119,1088,0.0000275,0.99427867,0.0000,10/08.3926/2009,2000,g  6.5,4.0
# From MPC 75711
P/2009 T2 (La Sagra),e,27.4963,215.7171,216.6018,7.729611,0.0458635,0.76498245,130.1912,10/14.0/2017,2000,g 14.0,4.0
# From MPC 82315
C/2009 T3 (LINEAR),e,148.5958,60.1724,32.3916,4552,0.0000032,0.99950177,0.0000,01/12.5099/2010,2000,g 12.5,4.0
# From MPC 70812
C/2009 U3 (Hill),e,51.0596,49.0654,77.9672,178.8539,0.0004121,0.99204118,0.0000,03/19.0790/2010,2000,g 13.0,4.0
# From MPC 75711
P/2009 U4 (McNaught),e,10.0808,55.3679,259.8342,5.077649,0.0861410,0.67511197,256.0255,10/14.0/2017,2000,g 14.0,4.0
# From MPC 82315
C/2009 U5 (Grauer),h,06/23.4407/2010,25.4463,121.0419,24.2522,1.004309,6.126793,2000,7.0,4.0
# From MPC 82315
C/2009 UG89 (Lemmon),h,12/12.1014/2010,130.1306,321.0556,60.6151,1.005188,3.939251,2000,9.0,4.0
# From MPC 72851
